start=new Date('2022-04-09T00:00:00.000Z').valueOf();
sats=[{"RCS_SIZE":"LARGE","OBJECT_TYPE":"PAYLOAD","SEMIMAJOR_AXIS":"6925.340","SITE":"AFETR","APOAPSIS":"548.500","MEAN_MOTION_DDOT":"0.0000000000000","BSTAR":"0.00012962000000","MEAN_MOTION_DOT":"0.00001650","INCLINATION":"53.0544","NORAD_CAT_ID":"45419","TIME_SYSTEM":"UTC","RA_OF_ASC_NODE":"110.3548","MEAN_MOTION":"15.06402865","PERIAPSIS":"545.910","OBJECT_ID":"2020-019BM","MEAN_ELEMENT_THEORY":"SGP4","PERIOD":"95.592","CENTER_NAME":"EARTH","ARG_OF_PERICENTER":"64.3000","COUNTRY_CODE":"US","FILE":"3393990","EPOCH":"2022-04-08T18:02:04.879104","ECCENTRICITY":"0.00018700","OBJECT_NAME":"STARLINK-1308","REF_FRAME":"TEME","EPHEMERIS_TYPE":"0","ELEMENT_SET_NO":"999","CLASSIFICATION_TYPE":"U","TLE_LINE2":"2 45419  53.0544 110.3548 0001870  64.3000 295.8182 15.06402865113790","REV_AT_EPOCH":"11379","LAUNCH_DATE":"2020-03-18","DECAY_DATE":null,"GP_ID":"200779933","MEAN_ANOMALY":"295.8182","TLE_LINE1":"1 45419U 20019BM  22098.75144536  .00001650  00000-0  12962-3 0  9996"},{"TIME_SYSTEM":"UTC","RA_OF_ASC_NODE":"49.9008","MEAN_MOTION":"15.06409366","MEAN_MOTION_DOT":"0.00004790","INCLINATION":"53.0564","NORAD_CAT_ID":"45531","OBJECT_ID":"2020-025A","PERIAPSIS":"546.199","RCS_SIZE":"LARGE","OBJECT_TYPE":"PAYLOAD","SEMIMAJOR_AXIS":"6925.320","APOAPSIS":"548.170","MEAN_MOTION_DDOT":"0.0000000000000","BSTAR":"0.00034019000000","SITE":"AFETR","LAUNCH_DATE":"2020-04-22","DECAY_DATE":null,"GP_ID":"200780195","CLASSIFICATION_TYPE":"U","REV_AT_EPOCH":"10943","TLE_LINE2":"2 45531  53.0564  49.9008 0001423  64.4536 295.6600 15.06409366109436","TLE_LINE1":"1 45531U 20025A   22098.85279386  .00004790  00000-0  34019-3 0  9996","MEAN_ANOMALY":"295.6600","COUNTRY_CODE":"US","FILE":"3393990","EPOCH":"2022-04-08T20:28:01.389504","ECCENTRICITY":"0.00014230","MEAN_ELEMENT_THEORY":"SGP4","PERIOD":"95.592","CENTER_NAME":"EARTH","ARG_OF_PERICENTER":"64.4536","EPHEMERIS_TYPE":"0","ELEMENT_SET_NO":"999","OBJECT_NAME":"STARLINK-1329","REF_FRAME":"TEME"},{"EPHEMERIS_TYPE":"0","ELEMENT_SET_NO":"999","OBJECT_NAME":"STARLINK-1338","REF_FRAME":"TEME","FILE":"3393990","COUNTRY_CODE":"US","EPOCH":"2022-04-08T14:21:47.192832","ECCENTRICITY":"0.00013630","MEAN_ELEMENT_THEORY":"SGP4","PERIOD":"95.592","CENTER_NAME":"EARTH","ARG_OF_PERICENTER":"82.6679","TLE_LINE1":"1 45532U 20025B   22098.59846288  .00002690  00000-0  19940-3 0  9992","MEAN_ANOMALY":"277.4465","LAUNCH_DATE":"2020-04-22","DECAY_DATE":null,"GP_ID":"200778943","CLASSIFICATION_TYPE":"U","TLE_LINE2":"2 45532  53.0560  51.0371 0001363  82.6679 277.4465 15.06408530109397","REV_AT_EPOCH":"10939","APOAPSIS":"548.131","MEAN_MOTION_DDOT":"0.0000000000000","BSTAR":"0.00019940000000","SITE":"AFETR","RCS_SIZE":"LARGE","OBJECT_TYPE":"PAYLOAD","SEMIMAJOR_AXIS":"6925.322","OBJECT_ID":"2020-025B","PERIAPSIS":"546.243","TIME_SYSTEM":"UTC","RA_OF_ASC_NODE":"51.0371","MEAN_MOTION":"15.06408530","MEAN_MOTION_DOT":"0.00002690","INCLINATION":"53.0560","NORAD_CAT_ID":"45532"},{"MEAN_ELEMENT_THEORY":"SGP4","PERIOD":"93.502","CENTER_NAME":"EARTH","ARG_OF_PERICENTER":"107.2667","FILE":"3393517","COUNTRY_CODE":"US","EPOCH":"2022-04-08T12:02:37.578048","ECCENTRICITY":"0.00043210","OBJECT_NAME":"STARLINK-1339","REF_FRAME":"TEME","EPHEMERIS_TYPE":"0","ELEMENT_SET_NO":"999","CLASSIFICATION_TYPE":"U","TLE_LINE2":"2 45533  53.0493  25.6374 0004321 107.2667 252.8810 15.40070359109743","REV_AT_EPOCH":"10974","LAUNCH_DATE":"2020-04-22","DECAY_DATE":null,"GP_ID":"200743957","MEAN_ANOMALY":"252.8810","TLE_LINE1":"1 45533U 20025C   22098.50182382  .00109784  00000-0  26746-2 0  9995","RCS_SIZE":"LARGE","OBJECT_TYPE":"PAYLOAD","SEMIMAJOR_AXIS":"6824.038","SITE":"AFETR","APOAPSIS":"448.852","MEAN_MOTION_DDOT":"0.0000000000000","BSTAR":"0.00267460000000","MEAN_MOTION_DOT":"0.00109784","INCLINATION":"53.0493","NORAD_CAT_ID":"45533","TIME_SYSTEM":"UTC","RA_OF_ASC_NODE":"25.6374","MEAN_MOTION":"15.40070359","PERIAPSIS":"442.955","OBJECT_ID":"2020-025C"},{"SEMIMAJOR_AXIS":"6925.324","OBJECT_TYPE":"PAYLOAD","RCS_SIZE":"LARGE","SITE":"AFETR","BSTAR":"0.00022821000000","APOAPSIS":"548.405","MEAN_MOTION_DDOT":"0.0000000000000","NORAD_CAT_ID":"45534","INCLINATION":"53.0545","MEAN_MOTION_DOT":"0.00003120","MEAN_MOTION":"15.06407932","RA_OF_ASC_NODE":"49.7925","TIME_SYSTEM":"UTC","PERIAPSIS":"545.973","OBJECT_ID":"2020-025D","CENTER_NAME":"EARTH","ARG_OF_PERICENTER":"66.2950","PERIOD":"95.592","MEAN_ELEMENT_THEORY":"SGP4","ECCENTRICITY":"0.00017560","EPOCH":"2022-04-08T20:59:52.446048","COUNTRY_CODE":"US","FILE":"3393990","REF_FRAME":"TEME","OBJECT_NAME":"STARLINK-1341","ELEMENT_SET_NO":"999","EPHEMERIS_TYPE":"0","TLE_LINE2":"2 45534  53.0545  49.7925 0001756  66.2950 293.8223 15.06407932109431","REV_AT_EPOCH":"10943","CLASSIFICATION_TYPE":"U","GP_ID":"200779945","DECAY_DATE":null,"LAUNCH_DATE":"2020-04-22","MEAN_ANOMALY":"293.8223","TLE_LINE1":"1 45534U 20025D   22098.87491257  .00003120  00000-0  22821-3 0  9998"},{"CLASSIFICATION_TYPE":"U","REV_AT_EPOCH":"10880","TLE_LINE2":"2 45535  53.0544  51.2015 0001368  61.8907 298.2220 15.06403685108808","LAUNCH_DATE":"2020-04-22","DECAY_DATE":null,"GP_ID":"200751083","MEAN_ANOMALY":"298.2220","TLE_LINE1":"1 45535U 20025E   22098.56160518  .00002611  00000-0  19411-3 0  9993","PERIOD":"95.592","MEAN_ELEMENT_THEORY":"SGP4","ARG_OF_PERICENTER":"61.8907","CENTER_NAME":"EARTH","FILE":"3393615","COUNTRY_CODE":"US","ECCENTRICITY":"0.00013680","EPOCH":"2022-04-08T13:28:42.687552","OBJECT_NAME":"STARLINK-1350","REF_FRAME":"TEME","EPHEMERIS_TYPE":"0","ELEMENT_SET_NO":"999","INCLINATION":"53.0544","MEAN_MOTION_DOT":"0.00002611","NORAD_CAT_ID":"45535","TIME_SYSTEM":"UTC","MEAN_MOTION":"15.06403685","RA_OF_ASC_NODE":"51.2015","PERIAPSIS":"546.255","OBJECT_ID":"2020-025E","RCS_SIZE":"LARGE","SEMIMAJOR_AXIS":"6925.337","OBJECT_TYPE":"PAYLOAD","SITE":"AFETR","MEAN_MOTION_DDOT":"0.0000000000000","APOAPSIS":"548.150","BSTAR":"0.00019411000000"},{"OBJECT_NAME":"STARLINK-1352","REF_FRAME":"TEME","EPHEMERIS_TYPE":"0","ELEMENT_SET_NO":"999","PERIOD":"95.592","MEAN_ELEMENT_THEORY":"SGP4","CENTER_NAME":"EARTH","ARG_OF_PERICENTER":"61.2080","FILE":"3393990","COUNTRY_CODE":"US","ECCENTRICITY":"0.00015920","EPOCH":"2022-04-08T19:56:10.908384","MEAN_ANOMALY":"298.9069","TLE_LINE1":"1 45536U 20025F   22098.83068181  .00001934  00000-0  14867-3 0  9994","CLASSIFICATION_TYPE":"U","REV_AT_EPOCH":"10942","TLE_LINE2":"2 45536  53.0557  49.9921 0001592  61.2080 298.9069 15.06399562109423","LAUNCH_DATE":"2020-04-22","DECAY_DATE":null,"GP_ID":"200778444","SITE":"AFETR","APOAPSIS":"548.317","MEAN_MOTION_DDOT":"0.0000000000000","BSTAR":"0.00014867000000","RCS_SIZE":"LARGE","SEMIMAJOR_AXIS":"6925.350","OBJECT_TYPE":"PAYLOAD","PERIAPSIS":"546.112","OBJECT_ID":"2020-025F","INCLINATION":"53.0557","MEAN_MOTION_DOT":"0.00001934","NORAD_CAT_ID":"45536","TIME_SYSTEM":"UTC","MEAN_MOTION":"15.06399562","RA_OF_ASC_NODE":"49.9921"},{"ARG_OF_PERICENTER":"138.6286","CENTER_NAME":"EARTH","MEAN_ELEMENT_THEORY":"SGP4","PERIOD":"94.718","EPOCH":"2022-04-08T21:58:13.190880","ECCENTRICITY":"0.00032690","COUNTRY_CODE":"US","FILE":"3393990","REF_FRAME":"TEME","OBJECT_NAME":"STARLINK-1353","ELEMENT_SET_NO":"999","EPHEMERIS_TYPE":"0","REV_AT_EPOCH":"10994","TLE_LINE2":"2 45537  53.0045  11.9930 0003269 138.6286 221.4957 15.20295155109948","CLASSIFICATION_TYPE":"U","GP_ID":"200779194","DECAY_DATE":null,"LAUNCH_DATE":"2020-04-22","MEAN_ANOMALY":"221.4957","TLE_LINE1":"1 45537U 20025G   22098.91543045  .00028545  00000-0  13071-2 0  9993","OBJECT_TYPE":"PAYLOAD","SEMIMAJOR_AXIS":"6883.087","RCS_SIZE":"LARGE","SITE":"AFETR","BSTAR":"0.00130710000000","MEAN_MOTION_DDOT":"0.0000000000000","APOAPSIS":"507.202","NORAD_CAT_ID":"45537","MEAN_MOTION_DOT":"0.00028545","INCLINATION":"53.0045","MEAN_MOTION":"15.20295155","RA_OF_ASC_NODE":"11.9930","TIME_SYSTEM":"UTC","PERIAPSIS":"502.702","OBJECT_ID":"2020-025G"},{"REV_AT_EPOCH":"10940","TLE_LINE2":"2 45538  53.0550  50.7720 0001411  72.9407 287.1736 15.06412988109404","CLASSIFICATION_TYPE":"U","DECAY_DATE":null,"GP_ID":"200779446","LAUNCH_DATE":"2020-04-22","MEAN_ANOMALY":"287.1736","TLE_LINE1":"1 45538U 20025H   22098.65743013  .00003842  00000-0  27660-3 0  9995","CENTER_NAME":"EARTH","ARG_OF_PERICENTER":"72.9407","MEAN_ELEMENT_THEORY":"SGP4","PERIOD":"95.591","EPOCH":"2022-04-08T15:46:41.963232","ECCENTRICITY":"0.00014110","COUNTRY_CODE":"US","FILE":"3393990","REF_FRAME":"TEME","OBJECT_NAME":"STARLINK-1362","ELEMENT_SET_NO":"999","EPHEMERIS_TYPE":"0","NORAD_CAT_ID":"45538","MEAN_MOTION_DOT":"0.00003842","INCLINATION":"53.0550","MEAN_MOTION":"15.06412988","RA_OF_ASC_NODE":"50.7720","TIME_SYSTEM":"UTC","PERIAPSIS":"546.197","OBJECT_ID":"2020-025H","OBJECT_TYPE":"PAYLOAD","SEMIMAJOR_AXIS":"6925.309","RCS_SIZE":"LARGE","SITE":"AFETR","BSTAR":"0.00027660000000","APOAPSIS":"548.151","MEAN_MOTION_DDOT":"0.0000000000000"},{"CLASSIFICATION_TYPE":"U","REV_AT_EPOCH":"11174","TLE_LINE2":"2 45539  53.0458 243.0576 0008899 282.5613  77.4411 15.76745330111740","LAUNCH_DATE":"2020-04-22","GP_ID":"200780196","DECAY_DATE":null,"MEAN_ANOMALY":"77.4411","TLE_LINE1":"1 45539U 20025J   22098.82851916  .00003811  00000-0  27274-4 0  9995","PERIOD":"91.327","MEAN_ELEMENT_THEORY":"SGP4","ARG_OF_PERICENTER":"282.5613","CENTER_NAME":"EARTH","COUNTRY_CODE":"US","FILE":"3393990","ECCENTRICITY":"0.00088990","EPOCH":"2022-04-08T19:53:04.055424","OBJECT_NAME":"STARLINK-1367","REF_FRAME":"TEME","EPHEMERIS_TYPE":"0","ELEMENT_SET_NO":"999","INCLINATION":"53.0458","MEAN_MOTION_DOT":"0.00003811","NORAD_CAT_ID":"45539","TIME_SYSTEM":"UTC","MEAN_MOTION":"15.76745330","RA_OF_ASC_NODE":"243.0576","PERIAPSIS":"333.693","OBJECT_ID":"2020-025J","RCS_SIZE":"LARGE","SEMIMAJOR_AXIS":"6717.806","OBJECT_TYPE":"PAYLOAD","SITE":"AFETR","APOAPSIS":"345.649","MEAN_MOTION_DDOT":"0.0000000000000","BSTAR":"0.00002727400000"}];
